STARLINK-35291          
1 66083U 25235AB  25312.16668980 -.02026013  00000+0 -33738-1 0  9997
2 66083  53.1608  92.3515 0001244  68.6374 114.1674 15.54582582  4270
STARLINK-35379          
1 66084U 25235AC  25312.16668980 -.02043035  00000+0 -34042-1 0  9990
2 66084  53.1608  92.3473 0001133  64.6510 120.0667 15.54593801  4329
STARLINK-35370          
1 66085U 25235AD  25312.16668980 -.02031980  00000+0 -33843-1 0  9995
2 66085  53.1612  92.3429 0001259  73.7989 112.8376 15.54587324  4279
STARLINK-35596          
1 66086U 25236A   25312.18447110  .00167467  00000+0  11238-2 0  9990
2 66086  53.1571 311.6830 0001757  34.9731 325.1404 15.74215836  4295
STARLINK-35563          
1 66087U 25236B   25312.12064464  .00149292  00000+0  10042-2 0  9990
2 66087  53.1570 311.9961 0001522 101.8714 258.2477 15.74224185  4224
STARLINK-35461          
1 66088U 25236C   25312.18345777  .00157509  00000+0  10583-2 0  9996
2 66088  53.1571 311.6761 0002248  47.3450 312.7759 15.74220192  4232
STARLINK-35571          
1 66089U 25236D   25312.18379624  .00170542  00000+0  11438-2 0  9997
2 66089  53.1571 311.6790 0002176  63.9828 296.1416 15.74218392  4298
STARLINK-35570          
1 66090U 25236E   25312.18311939  .00293583  00000+0  19246-2 0  9990
2 66090  53.1572 311.6732 0001705 174.1422 185.9618 15.74371360  4293
STARLINK-35532          
1 66091U 25236F   25312.18278074  .00132608  00000+0  89530-3 0  9997
2 66091  53.1571 311.6718 0000676 121.9713 238.1372 15.74195470  4290
STARLINK-35527          
1 66092U 25236G   25312.18244278  .00146773  00000+0  98842-3 0  9991
2 66092  53.1571 311.6693 0001446 134.1950 225.9189 15.74204470  4299
STARLINK-35500          
1 66093U 25236H   25312.18210397  .00185084  00000+0  12387-2 0  9994
2 66093  53.1569 311.6669 0001204  59.4531 300.6607 15.74221068  4294
STARLINK-35528          
1 66094U 25236J   25312.11827653  .00119789  00000+0  80979-3 0  9999
2 66094  53.1570 311.9792 0001382  76.5899 283.5275 15.74212543  4288
