CCSDS_OMM_VERS = 2.0
CREATION_DATE  = 
ORIGINATOR     = 

OBJECT_NAME    = STARLINK-35291
OBJECT_ID      = 2025-235AB
CENTER_NAME    = EARTH
REF_FRAME      = TEME
TIME_SYSTEM    = UTC
MEAN_ELEMENT_THEORY = SGP/SGP4

EPOCH          = 2025-11-08T04:00:01.998720
MEAN_MOTION    = 15.54582582
ECCENTRICITY   = .0001244
INCLINATION    = 53.1608
RA_OF_ASC_NODE = 92.3515
ARG_OF_PERICENTER = 68.6374
MEAN_ANOMALY   = 114.1674

EPHEMERIS_TYPE = 0
CLASSIFICATION_TYPE = U
NORAD_CAT_ID   = 66083
ELEMENT_SET_NO = 999
REV_AT_EPOCH   = 427
BSTAR          = -.33738E-1
MEAN_MOTION_DOT = -.2026013E-1
MEAN_MOTION_DDOT = 0

CCSDS_OMM_VERS = 2.0
CREATION_DATE  = 
ORIGINATOR     = 

OBJECT_NAME    = STARLINK-35379
OBJECT_ID      = 2025-235AC
CENTER_NAME    = EARTH
REF_FRAME      = TEME
TIME_SYSTEM    = UTC
MEAN_ELEMENT_THEORY = SGP/SGP4

EPOCH          = 2025-11-08T04:00:01.998720
MEAN_MOTION    = 15.54593801
ECCENTRICITY   = .0001133
INCLINATION    = 53.1608
RA_OF_ASC_NODE = 92.3473
ARG_OF_PERICENTER = 64.6510
MEAN_ANOMALY   = 120.0667

EPHEMERIS_TYPE = 0
CLASSIFICATION_TYPE = U
NORAD_CAT_ID   = 66084
ELEMENT_SET_NO = 999
REV_AT_EPOCH   = 432
BSTAR          = -.34042E-1
MEAN_MOTION_DOT = -.2043035E-1
MEAN_MOTION_DDOT = 0

CCSDS_OMM_VERS = 2.0
CREATION_DATE  = 
ORIGINATOR     = 

OBJECT_NAME    = STARLINK-35370
OBJECT_ID      = 2025-235AD
CENTER_NAME    = EARTH
REF_FRAME      = TEME
TIME_SYSTEM    = UTC
MEAN_ELEMENT_THEORY = SGP/SGP4

EPOCH          = 2025-11-08T04:00:01.998720
MEAN_MOTION    = 15.54587324
ECCENTRICITY   = .0001259
INCLINATION    = 53.1612
RA_OF_ASC_NODE = 92.3429
ARG_OF_PERICENTER = 73.7989
MEAN_ANOMALY   = 112.8376

EPHEMERIS_TYPE = 0
CLASSIFICATION_TYPE = U
NORAD_CAT_ID   = 66085
ELEMENT_SET_NO = 999
REV_AT_EPOCH   = 427
BSTAR          = -.33843E-1
MEAN_MOTION_DOT = -.203198E-1
MEAN_MOTION_DDOT = 0

CCSDS_OMM_VERS = 2.0
CREATION_DATE  = 
ORIGINATOR     = 

OBJECT_NAME    = STARLINK-35596
OBJECT_ID      = 2025-236A
CENTER_NAME    = EARTH
REF_FRAME      = TEME
TIME_SYSTEM    = UTC
MEAN_ELEMENT_THEORY = SGP/SGP4

EPOCH          = 2025-11-08T04:25:38.303040
MEAN_MOTION    = 15.74215836
ECCENTRICITY   = .0001757
INCLINATION    = 53.1571
RA_OF_ASC_NODE = 311.6830
ARG_OF_PERICENTER = 34.9731
MEAN_ANOMALY   = 325.1404

EPHEMERIS_TYPE = 0
CLASSIFICATION_TYPE = U
NORAD_CAT_ID   = 66086
ELEMENT_SET_NO = 999
REV_AT_EPOCH   = 429
BSTAR          = .11238E-2
MEAN_MOTION_DOT = .167467E-2
MEAN_MOTION_DDOT = 0

CCSDS_OMM_VERS = 2.0
CREATION_DATE  = 
ORIGINATOR     = 

OBJECT_NAME    = STARLINK-35563
OBJECT_ID      = 2025-236B
CENTER_NAME    = EARTH
REF_FRAME      = TEME
TIME_SYSTEM    = UTC
MEAN_ELEMENT_THEORY = SGP/SGP4

EPOCH          = 2025-11-08T02:53:43.696896
MEAN_MOTION    = 15.74224185
ECCENTRICITY   = .0001522
INCLINATION    = 53.1570
RA_OF_ASC_NODE = 311.9961
ARG_OF_PERICENTER = 101.8714
MEAN_ANOMALY   = 258.2477

EPHEMERIS_TYPE = 0
CLASSIFICATION_TYPE = U
NORAD_CAT_ID   = 66087
ELEMENT_SET_NO = 999
REV_AT_EPOCH   = 422
BSTAR          = .10042E-2
MEAN_MOTION_DOT = .149292E-2
MEAN_MOTION_DDOT = 0

CCSDS_OMM_VERS = 2.0
CREATION_DATE  = 
ORIGINATOR     = 

OBJECT_NAME    = STARLINK-35461
OBJECT_ID      = 2025-236C
CENTER_NAME    = EARTH
REF_FRAME      = TEME
TIME_SYSTEM    = UTC
MEAN_ELEMENT_THEORY = SGP/SGP4

EPOCH          = 2025-11-08T04:24:10.751328
MEAN_MOTION    = 15.74220192
ECCENTRICITY   = .0002248
INCLINATION    = 53.1571
RA_OF_ASC_NODE = 311.6761
ARG_OF_PERICENTER = 47.3450
MEAN_ANOMALY   = 312.7759

EPHEMERIS_TYPE = 0
CLASSIFICATION_TYPE = U
NORAD_CAT_ID   = 66088
ELEMENT_SET_NO = 999
REV_AT_EPOCH   = 423
BSTAR          = .10583E-2
MEAN_MOTION_DOT = .157509E-2
MEAN_MOTION_DDOT = 0

CCSDS_OMM_VERS = 2.0
CREATION_DATE  = 
ORIGINATOR     = 

OBJECT_NAME    = STARLINK-35571
OBJECT_ID      = 2025-236D
CENTER_NAME    = EARTH
REF_FRAME      = TEME
TIME_SYSTEM    = UTC
MEAN_ELEMENT_THEORY = SGP/SGP4

EPOCH          = 2025-11-08T04:24:39.995136
MEAN_MOTION    = 15.74218392
ECCENTRICITY   = .0002176
INCLINATION    = 53.1571
RA_OF_ASC_NODE = 311.6790
ARG_OF_PERICENTER = 63.9828
MEAN_ANOMALY   = 296.1416

EPHEMERIS_TYPE = 0
CLASSIFICATION_TYPE = U
NORAD_CAT_ID   = 66089
ELEMENT_SET_NO = 999
REV_AT_EPOCH   = 429
BSTAR          = .11438E-2
MEAN_MOTION_DOT = .170542E-2
MEAN_MOTION_DDOT = 0

CCSDS_OMM_VERS = 2.0
CREATION_DATE  = 
ORIGINATOR     = 

OBJECT_NAME    = STARLINK-35570
OBJECT_ID      = 2025-236E
CENTER_NAME    = EARTH
REF_FRAME      = TEME
TIME_SYSTEM    = UTC
MEAN_ELEMENT_THEORY = SGP/SGP4

EPOCH          = 2025-11-08T04:23:41.515296
MEAN_MOTION    = 15.74371360
ECCENTRICITY   = .0001705
INCLINATION    = 53.1572
RA_OF_ASC_NODE = 311.6732
ARG_OF_PERICENTER = 174.1422
MEAN_ANOMALY   = 185.9618

EPHEMERIS_TYPE = 0
CLASSIFICATION_TYPE = U
NORAD_CAT_ID   = 66090
ELEMENT_SET_NO = 999
REV_AT_EPOCH   = 429
BSTAR          = .19246E-2
MEAN_MOTION_DOT = .293583E-2
MEAN_MOTION_DDOT = 0

CCSDS_OMM_VERS = 2.0
CREATION_DATE  = 
ORIGINATOR     = 

OBJECT_NAME    = STARLINK-35532
OBJECT_ID      = 2025-236F
CENTER_NAME    = EARTH
REF_FRAME      = TEME
TIME_SYSTEM    = UTC
MEAN_ELEMENT_THEORY = SGP/SGP4

EPOCH          = 2025-11-08T04:23:12.255936
MEAN_MOTION    = 15.74195470
ECCENTRICITY   = .0000676
INCLINATION    = 53.1571
RA_OF_ASC_NODE = 311.6718
ARG_OF_PERICENTER = 121.9713
MEAN_ANOMALY   = 238.1372

EPHEMERIS_TYPE = 0
CLASSIFICATION_TYPE = U
NORAD_CAT_ID   = 66091
ELEMENT_SET_NO = 999
REV_AT_EPOCH   = 429
BSTAR          = .8953E-3
MEAN_MOTION_DOT = .132608E-2
MEAN_MOTION_DDOT = 0

CCSDS_OMM_VERS = 2.0
CREATION_DATE  = 
ORIGINATOR     = 

OBJECT_NAME    = STARLINK-35527
OBJECT_ID      = 2025-236G
CENTER_NAME    = EARTH
REF_FRAME      = TEME
TIME_SYSTEM    = UTC
MEAN_ELEMENT_THEORY = SGP/SGP4

EPOCH          = 2025-11-08T04:22:43.056192
MEAN_MOTION    = 15.74204470
ECCENTRICITY   = .0001446
INCLINATION    = 53.1571
RA_OF_ASC_NODE = 311.6693
ARG_OF_PERICENTER = 134.1950
MEAN_ANOMALY   = 225.9189

EPHEMERIS_TYPE = 0
CLASSIFICATION_TYPE = U
NORAD_CAT_ID   = 66092
ELEMENT_SET_NO = 999
REV_AT_EPOCH   = 429
BSTAR          = .98842E-3
MEAN_MOTION_DOT = .146773E-2
MEAN_MOTION_DDOT = 0

CCSDS_OMM_VERS = 2.0
CREATION_DATE  = 
ORIGINATOR     = 

OBJECT_NAME    = STARLINK-35500
OBJECT_ID      = 2025-236H
CENTER_NAME    = EARTH
REF_FRAME      = TEME
TIME_SYSTEM    = UTC
MEAN_ELEMENT_THEORY = SGP/SGP4

EPOCH          = 2025-11-08T04:22:13.783008
MEAN_MOTION    = 15.74221068
ECCENTRICITY   = .0001204
INCLINATION    = 53.1569
RA_OF_ASC_NODE = 311.6669
ARG_OF_PERICENTER = 59.4531
MEAN_ANOMALY   = 300.6607

EPHEMERIS_TYPE = 0
CLASSIFICATION_TYPE = U
NORAD_CAT_ID   = 66093
ELEMENT_SET_NO = 999
REV_AT_EPOCH   = 429
BSTAR          = .12387E-2
MEAN_MOTION_DOT = .185084E-2
MEAN_MOTION_DDOT = 0

CCSDS_OMM_VERS = 2.0
CREATION_DATE  = 
ORIGINATOR     = 

OBJECT_NAME    = STARLINK-35528
OBJECT_ID      = 2025-236J
CENTER_NAME    = EARTH
REF_FRAME      = TEME
TIME_SYSTEM    = UTC
MEAN_ELEMENT_THEORY = SGP/SGP4

EPOCH          = 2025-11-08T02:50:19.092192
MEAN_MOTION    = 15.74212543
ECCENTRICITY   = .0001382
INCLINATION    = 53.1570
RA_OF_ASC_NODE = 311.9792
ARG_OF_PERICENTER = 76.5899
MEAN_ANOMALY   = 283.5275

EPHEMERIS_TYPE = 0
CLASSIFICATION_TYPE = U
NORAD_CAT_ID   = 66094
ELEMENT_SET_NO = 999
REV_AT_EPOCH   = 428
BSTAR          = .80979E-3
MEAN_MOTION_DOT = .119789E-2
MEAN_MOTION_DDOT = 0

